{"type": "FeatureCollection", "features": [ {"type": "Feature", "properties": {"norad_id": 66815, "name": "STARLINK-35985", "group": "last-30-days", "lat": -42.91664065585446, "lon": 152.58242112008048, "alt_km": 293.1076987698643, "timestamp": "2025-12-13T15:35:10.877733+00:00", "meta": {"OBJECT_NAME": "STARLINK-35985", "OBJECT_ID": "2025-278AA", "EPOCH": "2025-12-12T18:52:41.807136", "MEAN_MOTION": 15.89981059, "ECCENTRICITY": 0.00144492, "INCLINATION": 42.9985, "RA_OF_ASC_NODE": 251.6744, "ARG_OF_PERICENTER": 289.6758, "MEAN_ANOMALY": 70.2558, "EPHEMERIS_TYPE": 0, "CLASSIFICATION_TYPE": "U", "NORAD_CAT_ID": 66815, "ELEMENT_SET_NO": 999, "REV_AT_EPOCH": 305, "BSTAR": 0.0028507856, "MEAN_MOTION_DOT": 0.00887373, "MEAN_MOTION_DDOT": 0.00032777577}, "tle": {"line1": "1 66815U 25278AA  25346.78659499  .00887373  32778-3  28508-2 0  9998", "line2": "2 66815  42.9985 251.6744 0014449 289.6758  70.2558 15.89981059  3051"}}, "geometry": {"type": "Point", "coordinates": [152.58242112008048, -42.91664065585446]}}, {"type": "Feature", "properties": {"norad_id": 66816, "name": "STARLINK-36098", "group": "last-30-days", "lat": -37.504463207099995, "lon": 121.83172743899101, "alt_km": 315.54055450386113, "timestamp": "2025-12-13T15:35:10.877743+00:00", "meta": {"OBJECT_NAME": "STARLINK-36098", "OBJECT_ID": "2025-278AB", "EPOCH": "2025-12-12T23:27:17.344512", "MEAN_MOTION": 15.87282263, "ECCENTRICITY": 0.0003862, "INCLINATION": 42.9976, "RA_OF_ASC_NODE": 250.5255, "ARG_OF_PERICENTER": 238.88, "MEAN_ANOMALY": 121.1695, "EPHEMERIS_TYPE": 0, "CLASSIFICATION_TYPE": "U", "NORAD_CAT_ID": 66816, "ELEMENT_SET_NO": 999, "REV_AT_EPOCH": 187, "BSTAR": -0.0055424219, "MEAN_MOTION_DOT": -0.01325931, "MEAN_MOTION_DDOT": 0}, "tle": {"line1": "1 66816U 25278AB  25346.97728408 -.01325931  00000+0 -55424-2 0  9993", "line2": "2 66816  42.9976 250.5255 0003862 238.8800 121.1695 15.87282263  1873"}}, "geometry": {"type": "Point", "coordinates": [121.83172743899101, -37.504463207099995]}}, {"type": "Feature", "properties": {"norad_id": 66817, "name": "STARLINK-35995", "group": "last-30-days", "lat": -38.80964633479282, "lon": 126.05004222924808, "alt_km": 317.6862419376175, "timestamp": "2025-12-13T15:35:10.877753+00:00", "meta": {"OBJECT_NAME": "STARLINK-35995", "OBJECT_ID": "2025-278AC", "EPOCH": "2025-12-12T18:54:11.570688", "MEAN_MOTION": 15.87607607, "ECCENTRICITY": 0.00037809, "INCLINATION": 42.9971, "RA_OF_ASC_NODE": 251.6843, "ARG_OF_PERICENTER": 253.1656, "MEAN_ANOMALY": 106.8803, "EPHEMERIS_TYPE": 0, "CLASSIFICATION_TYPE": "U", "NORAD_CAT_ID": 66817, "ELEMENT_SET_NO": 999, "REV_AT_EPOCH": 184, "BSTAR": -0.0068875873, "MEAN_MOTION_DOT": -0.01659981, "MEAN_MOTION_DDOT": 0}, "tle": {"line1": "1 66817U 25278AC  25346.78763392 -.01659981  00000+0 -68876-2 0  9994", "line2": "2 66817  42.9971 251.6843 0003780 253.1656 106.8803 15.87607607  1843"}}, "geometry": {"type": "Point", "coordinates": [126.05004222924808, -38.80964633479282]}}, {"type": "Feature", "properties": {"norad_id": 66818, "name": "STARLINK-35994", "group": "last-30-days", "lat": -42.04331286833022, "lon": 141.77144020224807, "alt_km": 299.60383971701685, "timestamp": "2025-12-13T15:35:10.877763+00:00", "meta": {"OBJECT_NAME": "STARLINK-35994", "OBJECT_ID": "2025-278AD", "EPOCH": "2025-12-12T18:54:42.475968", "MEAN_MOTION": 15.89830166, "ECCENTRICITY": 0.00026457, "INCLINATION": 42.9969, "RA_OF_ASC_NODE": 251.6879, "ARG_OF_PERICENTER": 254.3439, "MEAN_ANOMALY": 105.7144, "EPHEMERIS_TYPE": 0, "CLASSIFICATION_TYPE": "U", "NORAD_CAT_ID": 66818, "ELEMENT_SET_NO": 999, "REV_AT_EPOCH": 184, "BSTAR": 0.0031710894, "MEAN_MOTION_DOT": 0.01107431, "MEAN_MOTION_DDOT": 0}, "tle": {"line1": "1 66818U 25278AD  25346.78799162  .01107431  00000+0  31711-2 0  9993", "line2": "2 66818  42.9969 251.6879 0002645 254.3439 105.7144 15.89830166  1847"}}, "geometry": {"type": "Point", "coordinates": [141.77144020224807, -42.04331286833022]}}, {"type": "Feature", "properties": {"norad_id": 66819, "name": "STARLINK-35989", "group": "last-30-days", "lat": -39.82269020489542, "lon": 129.86022216554133, "alt_km": 327.7098006437691, "timestamp": "2025-12-13T15:35:10.877773+00:00", "meta": {"OBJECT_NAME": "STARLINK-35989", "OBJECT_ID": "2025-278AE", "EPOCH": "2025-12-12T18:53:27.854016", "MEAN_MOTION": 15.88759377, "ECCENTRICITY": 0.00091311, "INCLINATION": 42.9978, "RA_OF_ASC_NODE": 251.6809, "ARG_OF_PERICENTER": 2.6141, "MEAN_ANOMALY": 357.478, "EPHEMERIS_TYPE": 0, "CLASSIFICATION_TYPE": "U", "NORAD_CAT_ID": 66819, "ELEMENT_SET_NO": 999, "REV_AT_EPOCH": 184, "BSTAR": -0.011290707, "MEAN_MOTION_DOT": -0.0280559, "MEAN_MOTION_DDOT": 0}, "tle": {"line1": "1 66819U 25278AE  25346.78712794 -.02805590  00000+0 -11291-1 0  9994", "line2": "2 66819  42.9978 251.6809 0009131   2.6141 357.4780 15.88759377  1847"}}, "geometry": {"type": "Point", "coordinates": [129.86022216554133, -39.82269020489542]}}, {"type": "Feature", "properties": {"norad_id": 66820, "name": "KOMPSAT-7", "group": "last-30-days", "lat": -30.98514004675693, "lon": 108.8740241312301, "alt_km": 570.2354329919335, "timestamp": "2025-12-13T15:35:10.877786+00:00", "meta": {"OBJECT_NAME": "KOMPSAT-7", "OBJECT_ID": "2025-279A", "EPOCH": "2025-12-13T00:13:39.562752", "MEAN_MOTION": 14.98953982, "ECCENTRICITY": 0.00087134, "INCLINATION": 97.641, "RA_OF_ASC_NODE": 292.8708, "ARG_OF_PERICENTER": 224.4058, "MEAN_ANOMALY": 135.6467, "EPHEMERIS_TYPE": 0, "CLASSIFICATION_TYPE": "U", "NORAD_CAT_ID": 66820, "ELEMENT_SET_NO": 999, "REV_AT_EPOCH": 169, "BSTAR": 0.00036339747, "MEAN_MOTION_DOT": 4.343e-05, "MEAN_MOTION_DDOT": 0}, "tle": {"line1": "1 66820U 25279A   25347.00948568  .00004343  00000+0  36340-3 0  9990", "line2": "2 66820  97.6410 292.8708 0008713 224.4058 135.6467 14.98953982  1697"}}, "geometry": {"type": "Point", "coordinates": [108.8740241312301, -30.98514004675693]}}, {"type": "Feature", "properties": {"norad_id": 66821, "name": "STARLINK-35966", "group": "last-30-days", "lat": 43.90519902854289, "lon": -4.278709449569998, "alt_km": 336.9134199795999, "timestamp": "2025-12-13T15:35:10.877800+00:00", "meta": {"OBJECT_NAME": "STARLINK-35966", "OBJECT_ID": "2025-280A", "EPOCH": "2025-12-12T20:00:01.999872", "MEAN_MOTION": 15.79767855, "ECCENTRICITY": 0.0003666, "INCLINATION": 69.9935, "RA_OF_ASC_NODE": 198.5736, "ARG_OF_PERICENTER": 276.1119, "MEAN_ANOMALY": 260.9083, "EPHEMERIS_TYPE": 0, "CLASSIFICATION_TYPE": "U", "NORAD_CAT_ID": 66821, "ELEMENT_SET_NO": 999, "REV_AT_EPOCH": 291, "BSTAR": -0.01035773, "MEAN_MOTION_DOT": -0.01660119, "MEAN_MOTION_DDOT": 0}, "tle": {"line1": "1 66821U 25280A   25346.83335648 -.01660119  00000+0 -10358-1 0  9993", "line2": "2 66821  69.9935 198.5736 0003666 276.1119 260.9083 15.79767855  2913"}}, "geometry": {"type": "Point", "coordinates": [-4.278709449569998, 43.90519902854289]}}, {"type": "Feature", "properties": {"norad_id": 66822, "name": "STARLINK-35958", "group": "last-30-days", "lat": 42.17225624760904, "lon": -3.0232185110359224, "alt_km": 337.01181388339046, "timestamp": "2025-12-13T15:35:10.877810+00:00", "meta": {"OBJECT_NAME": "STARLINK-35958", "OBJECT_ID": "2025-280B", "EPOCH": "2025-12-12T20:00:01.999872", "MEAN_MOTION": 15.79773079, "ECCENTRICITY": 0.00037893, "INCLINATION": 69.9936, "RA_OF_ASC_NODE": 198.5716, "ARG_OF_PERICENTER": 272.6236, "MEAN_ANOMALY": 266.3079, "EPHEMERIS_TYPE": 0, "CLASSIFICATION_TYPE": "U", "NORAD_CAT_ID": 66822, "ELEMENT_SET_NO": 999, "REV_AT_EPOCH": 291, "BSTAR": -0.010265968, "MEAN_MOTION_DOT": -0.01647838, "MEAN_MOTION_DDOT": 0}, "tle": {"line1": "1 66822U 25280B   25346.83335648 -.01647838  00000+0 -10266-1 0  9995", "line2": "2 66822  69.9936 198.5716 0003789 272.6236 266.3079 15.79773079  2910"}}, "geometry": {"type": "Point", "coordinates": [-3.0232185110359224, 42.17225624760904]}}, {"type": "Feature", "properties": {"norad_id": 66823, "name": "STARLINK-35957", "group": "last-30-days", "lat": 40.41602015952281, "lon": -1.8290088332053112, "alt_km": 337.28788640147377, "timestamp": "2025-12-13T15:35:10.877820+00:00", "meta": {"OBJECT_NAME": "STARLINK-35957", "OBJECT_ID": "2025-280C", "EPOCH": "2025-12-12T20:00:01.999872", "MEAN_MOTION": 15.79778122, "ECCENTRICITY": 0.00036566, "INCLINATION": 69.9934, "RA_OF_ASC_NODE": 198.5691, "ARG_OF_PERICENTER": 275.3149, "MEAN_ANOMALY": 265.6012, "EPHEMERIS_TYPE": 0, "CLASSIFICATION_TYPE": "U", "NORAD_CAT_ID": 66823, "ELEMENT_SET_NO": 999, "REV_AT_EPOCH": 291, "BSTAR": -0.010340696, "MEAN_MOTION_DOT": -0.01658422, "MEAN_MOTION_DDOT": 0}, "tle": {"line1": "1 66823U 25280C   25346.83335648 -.01658422  00000+0 -10341-1 0  9991", "line2": "2 66823  69.9934 198.5691 0003656 275.3149 265.6012 15.79778122  2910"}}, "geometry": {"type": "Point", "coordinates": [-1.8290088332053112, 40.41602015952281]}}, {"type": "Feature", "properties": {"norad_id": 66824, "name": "STARLINK-35896", "group": "last-30-days", "lat": 38.59616280138472, "lon": -0.66298283745852, "alt_km": 337.29638289804006, "timestamp": "2025-12-13T15:35:10.877830+00:00", "meta": {"OBJECT_NAME": "STARLINK-35896", "OBJECT_ID": "2025-280D", "EPOCH": "2025-12-12T20:00:01.999872", "MEAN_MOTION": 15.79778746, "ECCENTRICITY": 0.00035496, "INCLINATION": 69.9935, "RA_OF_ASC_NODE": 198.5668, "ARG_OF_PERICENTER": 269.5471, "MEAN_ANOMALY": 273.409, "EPHEMERIS_TYPE": 0, "CLASSIFICATION_TYPE": "U", "NORAD_CAT_ID": 66824, "ELEMENT_SET_NO": 999, "REV_AT_EPOCH": 291, "BSTAR": -0.010368389, "MEAN_MOTION_DOT": -0.01662193, "MEAN_MOTION_DDOT": 0}, "tle": {"line1": "1 66824U 25280D   25346.83335648 -.01662193  00000+0 -10368-1 0  9991", "line2": "2 66824  69.9935 198.5668 0003549 269.5471 273.4090 15.79778746  2915"}}, "geometry": {"type": "Point", "coordinates": [-0.66298283745852, 38.59616280138472]}}]}